*******************************************************************************
Ephemeris / WWW_USER Tue Feb 19 21:47:29 2019 Pasadena, USA      / Horizons    
*******************************************************************************
Target body name: Pioneer 11 (spacecraft) (-24)   {source: pioneer_11}
Center body name: Earth (399)                     {source: pioneer_11}
Center-site name: Green Bank (GBT)
*******************************************************************************
Start time      : A.D. 2019-Feb-20 19:15:00.0000 UT      
Stop  time      : A.D. 2019-Feb-21 07:15:00.0000 UT      
Step-size       : 1 minutes
*******************************************************************************
Target pole/equ : No model available
Target radii    : (unavailable)                                                
Center geodetic : 280.160200,38.4330940,0.8760930 {E-lon(deg),Lat(deg),Alt(km)}
Center cylindric: 280.160200,5003.37558,3943.7589 {E-lon(deg),Dxy(km),Dz(km)}
Center pole/equ : High-precision EOP model        {East-longitude positive}
Center radii    : 6378.1 x 6378.1 x 6356.8 km     {Equator, meridian, pole}    
Target primary  : Earth
Vis. interferer : MOON (R_eq= 1737.400) km        {source: DE431mx}
Rel. light bend : Sun, EARTH                      {source: pioneer_11}
Rel. lght bnd GM: 1.3271E+11, 3.9860E+05 km^3/s^2                              
Atmos refraction: NO (AIRLESS)
RA format       : HMS
Time format     : CAL 
RTS-only print  : NO       
EOP file        : eop.190218.p190512                                           
EOP coverage    : DATA-BASED 1962-JAN-20 TO 2019-FEB-18. PREDICTS-> 2019-MAY-11
Units conversion: 1 au= 149597870.700 km, c= 299792.458 km/s, 1 day= 86400.0 s 
Table cut-offs 1: Elevation (-90.0deg=NO ),Airmass (>38.000=NO), Daylight (NO )
Table cut-offs 2: Solar elongation (  0.0,180.0=NO ),Local Hour Angle( 0.0=NO )
Table cut-offs 3: RA/DEC angular rate (     0.0=NO )                           
*******************************************************************************************************************
 Date__(UT)__HR:MN     R.A._(ICRF/J2000.0)_DEC dRA*cosD d(DEC)/dt            delta      deldot    S-O-T /r    S-T-O
*******************************************************************************************************************
$$SOE
 2019-Feb-20 20:21 *   18 54 26.58 -08 49 57.0 1.055980  0.358111 100.786825206321  -9.8687324  49.2936 /L   0.4255
 2019-Feb-20 20:22 *   18 54 26.59 -08 49 57.0 1.056045  0.358112 100.786821248306  -9.8690258  49.2943 /L   0.4255
 2019-Feb-20 20:23 *   18 54 26.59 -08 49 57.0 1.056110  0.358113 100.786817290172  -9.8693261  49.2949 /L   0.4256
 2019-Feb-20 20:24 *   18 54 26.59 -08 49 57.0 1.056176  0.358114 100.786813331915  -9.8696333  49.2956 /L   0.4256
 2019-Feb-20 20:25 *   18 54 26.59 -08 49 57.0 1.056241  0.358115 100.786809373534  -9.8699474  49.2962 /L   0.4256
 2019-Feb-20 20:26 *   18 54 26.59 -08 49 57.0 1.056306  0.358116 100.786805415026  -9.8702683  49.2969 /L   0.4256
 2019-Feb-20 20:27 *   18 54 26.59 -08 49 57.0 1.056371  0.358117 100.786801456388  -9.8705962  49.2976 /L   0.4256
 2019-Feb-20 20:28 *   18 54 26.59 -08 49 57.0 1.056436  0.358118 100.786797497617  -9.8709309  49.2982 /L   0.4256
 2019-Feb-20 20:29 *   18 54 26.59 -08 49 57.0 1.056502  0.358118 100.786793538710  -9.8712725  49.2989 /L   0.4256
 2019-Feb-20 20:30 *   18 54 26.59 -08 49 57.0 1.056567  0.358119 100.786789579665  -9.8716210  49.2995 /L   0.4256
 2019-Feb-20 20:31 *   18 54 26.60 -08 49 57.0 1.056632  0.358120 100.786785620478  -9.8719764  49.3002 /L   0.4256
 2019-Feb-20 20:32 *   18 54 26.60 -08 49 57.0 1.056697  0.358120 100.786781661148  -9.8723387  49.3008 /L   0.4256
 2019-Feb-20 20:33 *   18 54 26.60 -08 49 57.0 1.056762  0.358121 100.786777701671  -9.8727078  49.3015 /L   0.4256
 2019-Feb-20 20:34 *   18 54 26.60 -08 49 57.0 1.056827  0.358122 100.786773742045  -9.8730838  49.3021 /L   0.4256
 2019-Feb-20 20:35 *   18 54 26.60 -08 49 57.0 1.056892  0.358122 100.786769782266  -9.8734667  49.3028 /L   0.4256
 2019-Feb-20 20:36 *   18 54 26.60 -08 49 57.0 1.056957  0.358123 100.786765822333  -9.8738564  49.3034 /L   0.4256
 2019-Feb-20 20:37 *   18 54 26.60 -08 49 57.0 1.057021  0.358123 100.786761862242  -9.8742530  49.3041 /L   0.4256
 2019-Feb-20 20:38 *   18 54 26.60 -08 49 56.9 1.057086  0.358123 100.786757901990  -9.8746565  49.3047 /L   0.4256
 2019-Feb-20 20:39 *   18 54 26.61 -08 49 56.9 1.057151  0.358123 100.786753941575  -9.8750668  49.3054 /L   0.4256
 2019-Feb-20 20:40 *   18 54 26.61 -08 49 56.9 1.057216  0.358124 100.786749980995  -9.8754840  49.3060 /L   0.4256
 2019-Feb-20 20:41 *   18 54 26.61 -08 49 56.9 1.057281  0.358124 100.786746020245  -9.8759080  49.3067 /L   0.4256
 2019-Feb-20 20:42 *   18 54 26.61 -08 49 56.9 1.057345  0.358124 100.786742059324  -9.8763389  49.3073 /L   0.4256
 2019-Feb-20 20:43 *   18 54 26.61 -08 49 56.9 1.057410  0.358124 100.786738098229  -9.8767766  49.3080 /L   0.4256
 2019-Feb-20 20:44 *   18 54 26.61 -08 49 56.9 1.057475  0.358124 100.786734136958  -9.8772212  49.3087 /L   0.4256
 2019-Feb-20 20:45 *   18 54 26.61 -08 49 56.9 1.057539  0.358124 100.786730175506  -9.8776726  49.3093 /L   0.4256
 2019-Feb-20 20:46 *   18 54 26.61 -08 49 56.9 1.057604  0.358124 100.786726213872  -9.8781308  49.3100 /L   0.4256
 2019-Feb-20 20:47 *   18 54 26.62 -08 49 56.9 1.057668  0.358124 100.786722252053  -9.8785959  49.3106 /L   0.4256
 2019-Feb-20 20:48 *   18 54 26.62 -08 49 56.9 1.057732  0.358124 100.786718290046  -9.8790677  49.3113 /L   0.4257
 2019-Feb-20 20:49 *   18 54 26.62 -08 49 56.9 1.057797  0.358123 100.786714327848  -9.8795464  49.3119 /L   0.4257
 2019-Feb-20 20:50 *   18 54 26.62 -08 49 56.9 1.057861  0.358123 100.786710365457  -9.8800319  49.3126 /L   0.4257
 2019-Feb-20 20:51 *   18 54 26.62 -08 49 56.9 1.057925  0.358123 100.786706402870  -9.8805242  49.3132 /L   0.4257
 2019-Feb-20 20:52 *   18 54 26.62 -08 49 56.9 1.057989  0.358122 100.786702440084  -9.8810234  49.3139 /L   0.4257
 2019-Feb-20 20:53 *   18 54 26.62 -08 49 56.9 1.058054  0.358122 100.786698477097  -9.8815293  49.3145 /L   0.4257
 2019-Feb-20 20:54 *   18 54 26.62 -08 49 56.9 1.058118  0.358121 100.786694513905  -9.8820420  49.3152 /L   0.4257
 2019-Feb-20 20:55 *   18 54 26.62 -08 49 56.8 1.058182  0.358121 100.786690550506  -9.8825615  49.3158 /L   0.4257
 2019-Feb-20 20:56 *   18 54 26.63 -08 49 56.8 1.058246  0.358120 100.786686586898  -9.8830877  49.3165 /L   0.4257
 2019-Feb-20 20:57 *   18 54 26.63 -08 49 56.8 1.058309  0.358119 100.786682623077  -9.8836208  49.3171 /L   0.4257
 2019-Feb-20 20:58 *   18 54 26.63 -08 49 56.8 1.058373  0.358119 100.786678659041  -9.8841606  49.3178 /L   0.4257
 2019-Feb-20 20:59 *   18 54 26.63 -08 49 56.8 1.058437  0.358118 100.786674694787  -9.8847072  49.3185 /L   0.4257
 2019-Feb-20 21:00 *   18 54 26.63 -08 49 56.8 1.058501  0.358117 100.786670730313  -9.8852606  49.3191 /L   0.4257
 2019-Feb-20 21:01 *   18 54 26.63 -08 49 56.8 1.058564  0.358116 100.786666765615  -9.8858207  49.3198 /L   0.4257
 2019-Feb-20 21:02 *   18 54 26.63 -08 49 56.8 1.058628  0.358115 100.786662800691  -9.8863875  49.3204 /L   0.4257
 2019-Feb-20 21:03 *   18 54 26.63 -08 49 56.8 1.058691  0.358114 100.786658835539  -9.8869611  49.3211 /L   0.4257
 2019-Feb-20 21:04 *   18 54 26.64 -08 49 56.8 1.058755  0.358113 100.786654870155  -9.8875414  49.3217 /L   0.4257
 2019-Feb-20 21:05 *   18 54 26.64 -08 49 56.8 1.058818  0.358112 100.786650904538  -9.8881285  49.3224 /L   0.4257
 2019-Feb-20 21:06 *   18 54 26.64 -08 49 56.8 1.058881  0.358111 100.786646938683  -9.8887223  49.3230 /L   0.4257
 2019-Feb-20 21:07 *   18 54 26.64 -08 49 56.8 1.058944  0.358110 100.786642972589  -9.8893227  49.3237 /L   0.4257
 2019-Feb-20 21:08 *   18 54 26.64 -08 49 56.8 1.059007  0.358109 100.786639006252  -9.8899299  49.3243 /L   0.4257
 2019-Feb-20 21:09 *   18 54 26.64 -08 49 56.8 1.059070  0.358108 100.786635039671  -9.8905438  49.3250 /L   0.4257
 2019-Feb-20 21:10 *   18 54 26.64 -08 49 56.8 1.059133  0.358106 100.786631072843  -9.8911644  49.3256 /L   0.4257
 2019-Feb-20 21:11 *   18 54 26.64 -08 49 56.7 1.059196  0.358105 100.786627105764  -9.8917917  49.3263 /L   0.4257
 2019-Feb-20 21:12 *   18 54 26.64 -08 49 56.7 1.059259  0.358103 100.786623138432  -9.8924256  49.3269 /L   0.4257
 2019-Feb-20 21:13 *   18 54 26.65 -08 49 56.7 1.059321  0.358102 100.786619170844  -9.8930662  49.3276 /L   0.4258
 2019-Feb-20 21:14 *   18 54 26.65 -08 49 56.7 1.059384  0.358100 100.786615202999  -9.8937135  49.3283 /L   0.4258
 2019-Feb-20 21:15 *   18 54 26.65 -08 49 56.7 1.059447  0.358099 100.786611234892  -9.8943675  49.3289 /L   0.4258
 2019-Feb-20 21:16 *   18 54 26.65 -08 49 56.7 1.059509  0.358097 100.786607266522  -9.8950280  49.3296 /L   0.4258
 2019-Feb-20 21:17 *   18 54 26.65 -08 49 56.7 1.059571  0.358095 100.786603297885  -9.8956953  49.3302 /L   0.4258
 2019-Feb-20 21:18 *   18 54 26.65 -08 49 56.7 1.059633  0.358094 100.786599328980  -9.8963691  49.3309 /L   0.4258
 2019-Feb-20 21:19 *   18 54 26.65 -08 49 56.7 1.059695  0.358092 100.786595359803  -9.8970496  49.3315 /L   0.4258
 2019-Feb-20 21:20 *   18 54 26.65 -08 49 56.7 1.059757  0.358090 100.786591390351  -9.8977366  49.3322 /L   0.4258
 2019-Feb-20 21:21 *   18 54 26.66 -08 49 56.7 1.059819  0.358088 100.786587420623  -9.8984303  49.3328 /L   0.4258
 2019-Feb-20 21:22 *   18 54 26.66 -08 49 56.7 1.059881  0.358086 100.786583450616  -9.8991306  49.3335 /L   0.4258
 2019-Feb-20 21:23 *   18 54 26.66 -08 49 56.7 1.059943  0.358084 100.786579480326  -9.8998375  49.3341 /L   0.4258
 2019-Feb-20 21:24 *   18 54 26.66 -08 49 56.7 1.060004  0.358082 100.786575509751  -9.9005509  49.3348 /L   0.4258
 2019-Feb-20 21:25 *   18 54 26.66 -08 49 56.7 1.060066  0.358080 100.786571538889  -9.9012709  49.3355 /L   0.4258
 2019-Feb-20 21:26 *   18 54 26.66 -08 49 56.7 1.060127  0.358078 100.786567567737  -9.9019975  49.3361 /L   0.4258
